OBJECT_NAME,OBJECT_ID,EPOCH,MEAN_MOTION,ECCENTRICITY,INCLINATION,RA_OF_ASC_NODE,ARG_OF_PERICENTER,MEAN_ANOMALY,EPHEMERIS_TYPE,CLASSIFICATION_TYPE,NORAD_CAT_ID,ELEMENT_SET_NO,REV_AT_EPOCH,BSTAR,MEAN_MOTION_DOT,MEAN_MOTION_DDOT
HAWK-6B,2023-011A,2026-06-25T18:33:39.198240,15.23004156,.0001315,40.4996,301.9900,88.2706,271.8254,0,U,55324,999,18915,.21184E-3,.4895E-4,0
HAWK-6C,2023-011C,2026-06-25T18:32:44.259936,15.22997317,.0002026,40.4981,298.8315,66.4382,293.6640,0,U,55326,999,18916,.19891E-3,.4583E-4,0
HAWK-6A,2023-011D,2026-06-25T18:32:47.669280,15.23002017,.000166,40.4994,300.4567,59.6489,300.4484,0,U,55327,999,18916,.21167E-3,.489E-4,0
HAWK-7A,2023-054P,2026-06-25T18:11:39.567840,15.27443138,.0003647,97.2699,63.8775,37.9924,322.1572,0,U,56191,999,17833,.24827E-3,.6597E-4,0
HAWK-7B,2023-054R,2026-06-25T15:02:52.888128,15.27440166,.0003259,97.2726,62.0168,53.6354,306.5186,0,U,56193,999,17831,.25364E-3,.6741E-4,0
HAWK-7C,2023-054Y,2026-06-25T15:02:42.789696,15.27440351,.0003088,97.2703,62.7827,44.1478,316.0007,0,U,56200,999,17831,.24805E-3,.659E-4,0
