HAWK-6B                 
1 55324U 23011A   26176.77337035  .00004895  00000+0  21184-3 0  9997
2 55324  40.4996 301.9900 0001315  88.2706 271.8254 15.23004156189156
HAWK-6C                 
1 55326U 23011C   26176.77273449  .00004583  00000+0  19891-3 0  9993
2 55326  40.4981 298.8315 0002026  66.4382 293.6640 15.22997317189165
HAWK-6A                 
1 55327U 23011D   26176.77277395  .00004890  00000+0  21167-3 0  9998
2 55327  40.4994 300.4567 0001660  59.6489 300.4484 15.23002017189162
HAWK-7A                 
1 56191U 23054P   26176.75809685  .00006597  00000+0  24827-3 0  9998
2 56191  97.2699  63.8775 0003647  37.9924 322.1572 15.27443138178338
HAWK-7B                 
1 56193U 23054R   26176.62700102  .00006741  00000+0  25364-3 0  9998
2 56193  97.2726  62.0168 0003259  53.6354 306.5186 15.27440166178312
HAWK-7C                 
1 56200U 23054Y   26176.62688414  .00006590  00000+0  24805-3 0  9999
2 56200  97.2703  62.7827 0003088  44.1478 316.0007 15.27440351178311
